[{"OBJECT_NAME":"STARLINK-33558","OBJECT_ID":"2025-083K","EPOCH":"2026-03-09T04:34:55.780896","MEAN_MOTION":15.2760193,"ECCENTRICITY":7.998e-5,"INCLINATION":43.0021,"RA_OF_ASC_NODE":7.7636,"ARG_OF_PERICENTER":244.9996,"MEAN_ANOMALY":115.0773,"EPHEMERIS_TYPE":0,"CLASSIFICATION_TYPE":"U","NORAD_CAT_ID":63643,"ELEMENT_SET_NO":999,"REV_AT_EPOCH":4999,"BSTAR":0.00097657421,"MEAN_MOTION_DOT":0.00026726,"MEAN_MOTION_DDOT":0},{"OBJECT_NAME":"UNKNOWN","OBJECT_ID":"","EPOCH":"2026-02-22T00:08:45.737952","MEAN_MOTION":14.15044008,"ECCENTRICITY":0.0509514,"INCLINATION":65.771,"RA_OF_ASC_NODE":261.596,"ARG_OF_PERICENTER":328.3661,"MEAN_ANOMALY":28.7697,"EPHEMERIS_TYPE":0,"CLASSIFICATION_TYPE":"U","NORAD_CAT_ID":87456,"ELEMENT_SET_NO":999,"REV_AT_EPOCH":62157,"BSTAR":0.00055206,"MEAN_MOTION_DOT":3.756e-5,"MEAN_MOTION_DDOT":0}]
